STARLINK-3082_new
1 19162C 21082AJ  21326.13701446 -.00647493  00000-0 -11364-1 0  3260
2 19162  70.0000 293.3386 0003493 274.6049  45.6441 15.51020336    17
STARLINK-3082_old
1 29162C 21082AJ  21325.18988962 -.00662523  00000-0 -11090-1 0  3250
2 29162  69.9999 295.9309 0003426 274.4736 156.4178 15.52368998    19
